ISS (ZARYA)             
1 25544U 98067A   26164.51270266  .00008586  00000+0  16263-3 0  9995
2 25544  51.6334 318.2790 0004918 181.0364 179.0615 15.49208508571182
OSCAR 7 (AO-7)          
1 07530U 74089B   26164.56510839 -.00000026  00000+0  12809-3 0  9990
2 07530 101.9901 177.7740 0012533 136.8418 343.3744 12.53698067360066
PHASE 3B (AO-10)        
1 14129U 83058B   26164.48490246  .00000072  00000+0  00000+0 0  9994
2 14129  25.9094 220.1781 6012114 114.6492 317.6358  2.05869395295412
UOSAT 2 (UO-11)         
1 14781U 84021B   26164.46263220  .00001246  00000+0  13240-3 0  9995
2 14781  97.8057 130.0790 0007283 185.1470 174.9674 14.90774931256573
LUSAT (LO-19)           
1 20442U 90005G   26164.62375740  .00000112  00000+0  56807-4 0  9992
2 20442  98.8851 186.3311 0010924 212.0527 147.9994 14.34122217901887
EYESAT A (AO-27)        
1 22825U 93061C   26164.43375711  .00000089  00000+0  50711-4 0  9992
2 22825  98.6880 231.8486 0009501 109.3643 250.8567 14.30941283706464
ITAMSAT (IO-26)         
1 22826U 93061D   26164.13467698  .00000087  00000+0  49681-4 0  9998
2 22826  98.6828 231.4666 0010080  95.5594 264.6739 14.31367991706731
RADIO ROSTO (RS15)      
1 23439U 94085A   26164.65710661 -.00000049  00000+0 -19303-3 0  9991
2 23439  64.8180 308.9254 0155842   4.5284 355.7010 11.27583530295506
JAS-2 (FO-29)           
1 24278U 96046B   26164.54044962  .00000019  00000+0  52058-4 0  9994
2 24278  98.5242  13.9122 0350859 105.8707 258.1395 13.53274092472676
TECHSAT 1B (GO-32)      
1 25397U 98043D   26164.55223931  .00000058  00000+0  45458-4 0  9991
2 25397  99.0066 157.2191 0000861 170.7253 189.3941 14.24427810450810
PCSAT (NO-44)           
1 26931U 01043C   26164.59719895  .00000106  00000+0  70446-4 0  9992
2 26931  67.0507 253.5571 0006090 264.5230  95.5177 14.31954950289939
SAUDISAT 1C (SO-50)     
1 27607U 02058C   26164.31164535  .00000964  00000+0  13088-3 0  9995
2 27607  64.5508 140.9762 0075339 263.1926  96.0604 14.83039133263884
CUTE-1 (CO-55)          
1 27844U 03031E   26164.59502060  .00000276  00000+0  13836-3 0  9996
2 27844  98.6734 173.1988 0009255 188.5198 171.5825 14.24333733191162
CUBESAT XI-IV (CO-57)   
1 27848U 03031J   26164.58167660  .00000234  00000+0  12199-3 0  9997
2 27848  98.6767 172.9014 0008792 208.1063 151.9642 14.23619125190860
MOZHAETS 4 (RS22)       
1 27939U 03042A   26164.68212006  .00000647  00000+0  10789-3 0  9997
2 27939  98.3467 348.9424 0009976 282.2178 145.3988 14.73460546215033
CUBESAT XI-V            
1 28895U 05043F   26164.39375696  .00001317  00000+0  21486-3 0  9996
2 28895  98.2979 319.9359 0013416 213.2696 146.7669 14.72622172101196
CUTE-1.7+APD II (CO-65) 
1 32785U 08021C   26164.60275444  .00005019  00000+0  31765-3 0  9996
2 32785  97.8270 145.9466 0010213  50.2364 309.9762 15.09422616984656
SEEDS II (CO-66)        
1 32791U 08021J   26164.54482073  .00018790  00000+0  59804-3 0  9998
2 32791  97.7510 162.2685 0001606  15.7842 344.3449 15.32635476986739
YUBILEINY (RS30)        
1 32953U 08025A   26164.63790681  .00000056  00000+0  33047-3 0  9996
2 32953  82.5046 357.6492 0019000 321.9358  38.0378 12.43179213819253
KKS-1 (KISEKI)          
1 33499U 09002H   26164.54594899  .00001280  00000+0  16385-3 0  9997
2 33499  98.1193  86.9304 0006714 309.9672  50.0950 14.83115782935652
SWISSCUBE               
1 35932U 09051B   26164.54253078  .00000940  00000+0  19530-3 0  9993
2 35932  98.4040  72.3672 0005746 215.9144 144.1671 14.62475506888620
BEESAT-1                
1 35933U 09051C   26164.27625783  .00000762  00000+0  16281-3 0  9992
2 35933  98.3969  71.7400 0004035 232.2675 127.8160 14.61714735888612
ITUPSAT1                
1 35935U 09051E   26164.46926384  .00000709  00000+0  15645-3 0  9990
2 35935  98.4053  71.1320 0006150 247.8534 112.2013 14.60435688888194
XIWANG-1 (HOPE-1)       
1 36122U 09072B   26164.59592293  .00000151  00000+0  51196-3 0  9996
2 36122 100.4020 118.4849 0006835 240.2690 119.7743 13.16440406792530
O/OREOS (USA 219)       
1 37224U 10062C   26164.51280709  .00002341  00000+0  22655-3 0  9990
2 37224  71.9712  88.6621 0012446  71.0811 289.1707 14.93730342116090
JUGNU                   
1 37839U 11058B   26164.15216560  .00000403  00000+0  70847-4 0  9996
2 37839  19.9620 332.9425 0018601  31.8631 131.2795 14.13775702758459
SRMSAT                  
1 37841U 11058D   26164.49266569  .00000360  00000+0  51406-4 0  9992
2 37841  19.9718  81.8294 0011872 162.9750 353.0513 14.11574841757297
STRAND-1                
1 39090U 13009E   26164.22680756  .00000263  00000+0  10267-3 0  9998
2 39090  98.3921 344.5588 0007559 238.7120 121.3328 14.37161166696491
ZACUBE-1 (TSHEPISOSAT)  
1 39417U 13066B   26164.47459403  .00003536  00000+0  27607-3 0  9996
2 39417  97.8083 126.7913 0040407 260.6547  99.0106 15.01168647680171
GOMX-1                  
1 39430U 13066Q   26164.37272037  .00001661  00000+0  25372-3 0  9990
2 39430  97.6489   5.0768 0130198  89.6712 271.9413 14.69446045669354
